{"type":"FeatureCollection","licence":"Data © OpenStreetMap contributors, ODbL 1.0. http://osm.org/copyright","features":[{"type":"Feature","properties":{"place_id":35184174,"osm_type":"relation","osm_id":2856388,"place_rank":24,"category":"leisure","type":"nature_reserve","importance":0.08004500114442661,"addresstype":"nature_reserve","name":"Greater Makalali Private Game Reserve","display_name":"Greater Makalali Private Game Reserve, Ba-Phalaborwa Local Municipality, Mopani District Municipality, Limpopo, South Africa"},"bbox":[30.5395364,-24.2187862,30.7788833,-24.0240091],"geometry":{"type":"Polygon","coordinates":[[[30.5395364,-24.0679246],[30.539576,-24.0682263],[30.5528848,-24.1026629],[30.5637509,-24.1189482],[30.5818182,-24.1330482],[30.5879551,-24.139941],[30.6005357,-24.1370449],[30.6312,-24.1713],[30.63214,-24.17268],[30.63367,-24.17441],[30.63486,-24.17543],[30.63567,-24.17613],[30.63588,-24.17664],[30.63597,-24.17735],[30.63592,-24.17817],[30.63583,-24.17896],[30.63536,-24.1797],[30.63434,-24.18068],[30.63288,-24.18165],[30.63155,-24.18247],[30.63023,-24.18315],[30.62839,-24.18385],[30.62685,-24.1842],[30.62484,-24.18443],[30.62322,-24.18435],[30.62202,-24.18423],[30.62045,-24.1834],[30.61938,-24.18293],[30.6188998,-24.1828129],[30.6185516,-24.1842279],[30.6185516,-24.1864985],[30.6189378,-24.1877904],[30.6321709,-24.2187862],[30.6733116,-24.1944453],[30.718244,-24.2050925],[30.7323889,-24.1936546],[30.7293848,-24.190382],[30.776626,-24.1653568],[30.7756218,-24.1636731],[30.7751068,-24.1602274],[30.7764801,-24.1550587],[30.7776246,-24.1520865],[30.7787117,-24.1492633],[30.7788833,-24.1462871],[30.7769951,-24.1436242],[30.7751068,-24.1434675],[30.7733902,-24.1464437],[30.7703003,-24.1497332],[30.766867,-24.1519261],[30.7624038,-24.1522393],[30.7613403,-24.1522393],[30.7584556,-24.1522393],[30.7558807,-24.1506338],[30.757254,-24.1484801],[30.7591423,-24.1471878],[30.7584556,-24.1448773],[30.7539924,-24.1447207],[30.7531341,-24.1409612],[30.7490143,-24.1399821],[30.7431778,-24.1343818],[30.7442077,-24.1315619],[30.7452377,-24.130152],[30.7435211,-24.1298387],[30.7418045,-24.1307786],[30.7407745,-24.1280762],[30.7436928,-24.1260396],[30.746611,-24.121222],[30.7452377,-24.1188327],[30.7404312,-24.1174226],[30.736998,-24.1163259],[30.7378563,-24.1146416],[30.7347664,-24.1152683],[30.7421608,-24.1105489],[30.7563957,-24.0936447],[30.6994041,-24.0610456],[30.6645569,-24.1061805],[30.6020807,-24.0517973],[30.5840477,-24.0240091],[30.5797263,-24.024484],[30.559642,-24.0389818],[30.5448968,-24.0517512],[30.5443152,-24.0524209],[30.543965,-24.0530091],[30.543694,-24.0537239],[30.5430704,-24.0570428],[30.5425586,-24.0597287],[30.5422994,-24.0610888],[30.5420822,-24.0618675],[30.5418126,-24.0626581],[30.5405617,-24.0654035],[30.5402716,-24.0660773],[30.539845,-24.0669233],[30.5396505,-24.0673486],[30.5395719,-24.0676298],[30.5395364,-24.0679246]]]}}]}